LYNK TOWER 4            
1 55034U 23001AB  26068.67743801  .00009160  00000+0  30014-3 0  9997
2 55034  97.3324 128.5940 0010321 112.3386 247.8950 15.31819885176588
STARLINK-35697          
1 66539U 25265Z   26067.63642160  .00048671  00000+0  17651-2 0  9995
2 66539  43.0008 283.7659 0000519 280.3010  79.7783 15.27606942 16959
